{
  "type": "FeatureCollection",
  "features": [
    {
      "type": "Feature",
      "properties": {
        "norad_id": 33412,
        "name": "COSMO-SKYMED 3",
        "group": "resource",
        "lat": 46.0049425162563,
        "lon": 28.13593504008547,
        "alt_km": 536.668693409084,
        "timestamp": "2025-12-15T11:38:36.814300+00:00",
        "meta_object_name": "COSMO-SKYMED 3",
        "meta_object_id": "2008-054A",
        "meta_epoch": "2025-12-14T22:17:26.862432",
        "meta_mean_motion": 15.05383279,
        "meta_eccentricity": 0.00162122,
        "meta_inclination": 97.8479,
        "meta_ra_of_asc_node": 199.3572,
        "meta_arg_of_pericenter": 165.7819,
        "meta_mean_anomaly": 194.3867,
        "meta_ephemeris_type": 0,
        "meta_classification_type": "U",
        "meta_norad_cat_id": 33412,
        "meta_element_set_no": 999,
        "meta_rev_at_epoch": 92920,
        "meta_bstar": 0.00029790403,
        "meta_mean_motion_dot": 4.218e-05,
        "meta_mean_motion_ddot": 0,
        "tle_line1": "1 33412U 08054A   25348.92878313  .00004218  00000+0  29790-3 0  9997",
        "tle_line2": "2 33412  97.8479 199.3572 0016212 165.7819 194.3867 15.05383279929207"
      },
      "geometry": {
        "type": "Point",
        "coordinates": [
          28.13593504008547,
          46.0049425162563
        ]
      }
    },
    {
      "type": "Feature",
      "properties": {
        "norad_id": 33446,
        "name": "YAOGAN-4",
        "group": "resource",
        "lat": -69.26058017385338,
        "lon": 77.99290447100027,
        "alt_km": 623.8542114867214,
        "timestamp": "2025-12-15T11:38:36.814311+00:00",
        "meta_object_name": "YAOGAN-4",
        "meta_object_id": "2008-061A",
        "meta_epoch": "2025-12-14T19:56:16.699776",
        "meta_mean_motion": 14.82690709,
        "meta_eccentricity": 0.00134312,
        "meta_inclination": 97.9179,
        "meta_ra_of_asc_node": 278.9095,
        "meta_arg_of_pericenter": 315.9902,
        "meta_mean_anomaly": 44.0242,
        "meta_ephemeris_type": 0,
        "meta_classification_type": "U",
        "meta_norad_cat_id": 33446,
        "meta_element_set_no": 999,
        "meta_rev_at_epoch": 91834,
        "meta_bstar": 0.00021548269,
        "meta_mean_motion_dot": 1.687e-05,
        "meta_mean_motion_ddot": 0,
        "tle_line1": "1 33446U 08061A   25348.83074884  .00001687  00000+0  21548-3 0  9993",
        "tle_line2": "2 33446  97.9179 278.9095 0013431 315.9902  44.0242 14.82690709918342"
      },
      "geometry": {
        "type": "Point",
        "coordinates": [
          77.99290447100027,
          -69.26058017385338
        ]
      }
    },
    {
      "type": "Feature",
      "properties": {
        "norad_id": 33492,
        "name": "GOSAT (IBUKI)",
        "group": "resource",
        "lat": 25.982803493433,
        "lon": -77.9812071132948,
        "alt_km": 667.6546312152586,
        "timestamp": "2025-12-15T11:38:36.814321+00:00",
        "meta_object_name": "GOSAT (IBUKI)",
        "meta_object_id": "2009-002A",
        "meta_epoch": "2025-12-14T21:51:18.293760",
        "meta_mean_motion": 14.67558988,
        "meta_eccentricity": 9.612e-05,
        "meta_inclination": 98.0771,
        "meta_ra_of_asc_node": 97.4838,
        "meta_arg_of_pericenter": 95.2176,
        "meta_mean_anomaly": 264.9138,
        "meta_ephemeris_type": 0,
        "meta_classification_type": "U",
        "meta_norad_cat_id": 33492,
        "meta_element_set_no": 999,
        "meta_rev_at_epoch": 90443,
        "meta_bstar": 0.00017175476,
        "meta_mean_motion_dot": 9.26e-06,
        "meta_mean_motion_ddot": 0,
        "tle_line1": "1 33492U 09002A   25348.91062840  .00000926  00000+0  17175-3 0  9994",
        "tle_line2": "2 33492  98.0771  97.4838 0000961  95.2176 264.9138 14.67558988904434"
      },
      "geometry": {
        "type": "Point",
        "coordinates": [
          -77.9812071132948,
          25.982803493433
        ]
      }
    },
    {
      "type": "Feature",
      "properties": {
        "norad_id": 35681,
        "name": "DEIMOS-1",
        "group": "resource",
        "lat": -55.009046064894434,
        "lon": 161.1267906157175,
        "alt_km": 653.5622542854244,
        "timestamp": "2025-12-15T11:38:36.814335+00:00",
        "meta_object_name": "DEIMOS-1",
        "meta_object_id": "2009-041A",
        "meta_epoch": "2025-12-14T21:14:33.398592",
        "meta_mean_motion": 14.74958653,
        "meta_eccentricity": 0.00027201,
        "meta_inclination": 97.7147,
        "meta_ra_of_asc_node": 149.3884,
        "meta_arg_of_pericenter": 76.4838,
        "meta_mean_anomaly": 283.6675,
        "meta_ephemeris_type": 0,
        "meta_classification_type": "U",
        "meta_norad_cat_id": 35681,
        "meta_element_set_no": 999,
        "meta_rev_at_epoch": 87971,
        "meta_bstar": 0.00019439256,
        "meta_mean_motion_dot": 1.259e-05,
        "meta_mean_motion_ddot": 0,
        "tle_line1": "1 35681U 09041A   25348.88510878  .00001259  00000+0  19439-3 0  9999",
        "tle_line2": "2 35681  97.7147 149.3884 0002720  76.4838 283.6675 14.74958653879715"
      },
      "geometry": {
        "type": "Point",
        "coordinates": [
          161.1267906157175,
          -55.009046064894434
        ]
      }
    },
    {
      "type": "Feature",
      "properties": {
        "norad_id": 35682,
        "name": "DUBAISAT-1",
        "group": "resource",
        "lat": -54.997779799850356,
        "lon": -71.42955144825258,
        "alt_km": 651.0821819272905,
        "timestamp": "2025-12-15T11:38:36.814347+00:00",
        "meta_object_name": "DUBAISAT-1",
        "meta_object_id": "2009-041B",
        "meta_epoch": "2025-12-14T21:32:55.028832",
        "meta_mean_motion": 14.74611203,
        "meta_eccentricity": 0.00094381,
        "meta_inclination": 97.9785,
        "meta_ra_of_asc_node": 119.5456,
        "meta_arg_of_pericenter": 306.9924,
        "meta_mean_anomaly": 53.0421,
        "meta_ephemeris_type": 0,
        "meta_classification_type": "U",
        "meta_norad_cat_id": 35682,
        "meta_element_set_no": 999,
        "meta_rev_at_epoch": 87793,
        "meta_bstar": 0.00018701625,
        "meta_mean_motion_dot": 1.197e-05,
        "meta_mean_motion_ddot": 0,
        "tle_line1": "1 35682U 09041B   25348.89785913  .00001197  00000+0  18702-3 0  9998",
        "tle_line2": "2 35682  97.9785 119.5456 0009438 306.9924  53.0421 14.74611203877937"
      },
      "geometry": {
        "type": "Point",
        "coordinates": [
          -71.42955144825258,
          -54.997779799850356
        ]
      }
    },
    {
      "type": "Feature",
      "properties": {
        "norad_id": 35931,
        "name": "OCEANSAT-2",
        "group": "resource",
        "lat": 32.83949993175564,
        "lon": -15.547322151245766,
        "alt_km": 881.3343695251042,
        "timestamp": "2025-12-15T11:38:36.814357+00:00",
        "meta_object_name": "OCEANSAT-2",
        "meta_object_id": "2009-051A",
        "meta_epoch": "2025-12-14T23:28:33.115584",
        "meta_mean_motion": 13.99624213,
        "meta_eccentricity": 0.00161579,
        "meta_inclination": 98.2221,
        "meta_ra_of_asc_node": 349.3518,
        "meta_arg_of_pericenter": 39.1844,
        "meta_mean_anomaly": 321.0489,
        "meta_ephemeris_type": 0,
        "meta_classification_type": "U",
        "meta_norad_cat_id": 35931,
        "meta_element_set_no": 999,
        "meta_rev_at_epoch": 85356,
        "meta_bstar": -5.9636733e-05,
        "meta_mean_motion_dot": -1.25e-06,
        "meta_mean_motion_ddot": 0,
        "tle_line1": "1 35931U 09051A   25348.97816106 -.00000125  00000+0 -59637-4 0  9999",
        "tle_line2": "2 35931  98.2221 349.3518 0016157  39.1844 321.0489 13.99624213853563"
      },
      "geometry": {
        "type": "Point",
        "coordinates": [
          -15.547322151245766,
          32.83949993175564
        ]
      }
    },
    {
      "type": "Feature",
      "properties": {
        "norad_id": 35946,
        "name": "WORLDVIEW-2 (WV-2)",
        "group": "resource",
        "lat": 9.016483569918886,
        "lon": -118.11198658616541,
        "alt_km": 768.8023345836837,
        "timestamp": "2025-12-15T11:38:36.814368+00:00",
        "meta_object_name": "WORLDVIEW-2 (WV-2)",
        "meta_object_id": "2009-055A",
        "meta_epoch": "2025-12-14T21:29:24.649152",
        "meta_mean_motion": 14.37724771,
        "meta_eccentricity": 0.00051211,
        "meta_inclination": 98.4787,
        "meta_ra_of_asc_node": 59.9501,
        "meta_arg_of_pericenter": 65.3427,
        "meta_mean_anomaly": 294.8293,
        "meta_ephemeris_type": 0,
        "meta_classification_type": "U",
        "meta_norad_cat_id": 35946,
        "meta_element_set_no": 999,
        "meta_rev_at_epoch": 84916,
        "meta_bstar": 6.8401134e-05,
        "meta_mean_motion_dot": 1.62e-06,
        "meta_mean_motion_ddot": 0,
        "tle_line1": "1 35946U 09055A   25348.89542418  .00000162  00000+0  68401-4 0  9990",
        "tle_line2": "2 35946  98.4787  59.9501 0005121  65.3427 294.8293 14.37724771849165"
      },
      "geometry": {
        "type": "Point",
        "coordinates": [
          -118.11198658616541,
          9.016483569918886
        ]
      }
    }
  ]
}